[{"OBJECT_NAME":"STARLINK-2379","OBJECT_ID":"2021-018M","EPOCH":"2026-03-09T16:04:01.938432","MEAN_MOTION":15.06392315,"ECCENTRICITY":0.00011711,"INCLINATION":53.055,"RA_OF_ASC_NODE":231.7042,"ARG_OF_PERICENTER":85.9686,"MEAN_ANOMALY":274.1437,"EPHEMERIS_TYPE":0,"CLASSIFICATION_TYPE":"U","NORAD_CAT_ID":47798,"ELEMENT_SET_NO":999,"REV_AT_EPOCH":27687,"BSTAR":-0.00021739496,"MEAN_MOTION_DOT":-3.517e-5,"MEAN_MOTION_DDOT":0},{"OBJECT_NAME":"RAAF M1","OBJECT_ID":"2018-099X","EPOCH":"2026-03-09T15:51:10.230048","MEAN_MOTION":15.07065376,"ECCENTRICITY":0.00134971,"INCLINATION":97.4534,"RA_OF_ASC_NODE":114.8325,"ARG_OF_PERICENTER":21.6261,"MEAN_ANOMALY":338.5534,"EPHEMERIS_TYPE":0,"CLASSIFICATION_TYPE":"U","NORAD_CAT_ID":43779,"ELEMENT_SET_NO":999,"REV_AT_EPOCH":39714,"BSTAR":0.00026511092,"MEAN_MOTION_DOT":3.923e-5,"MEAN_MOTION_DDOT":0}]
